CTC2_L_00112001-01
1 18307U 22247ML  26070.40843750  .00000000  00000+0  00000-0 0  9991
2 18307  55.0000   0.0000 0000000   0.0000   0.0000 14.51731151    11
CTC2_L_00112001-02
1 18308U 26179ZK  26070.40843750  .00000000  00000+0  00000-0 0  9990
2 18308  55.0000   0.0000 0000000   0.0000  90.0000 14.51731151    11
CTC2_L_00112001-03
1 18309U 23639OU  26070.40843750  .00000000  00000+0  00000-0 0  9999
2 18309  55.0000   0.0000 0000000   0.0000 180.0000 14.51731151    12
CTC2_L_00112001-04
1 18310U 26761QK  26070.40843750  .00000000  00000+0  00000-0 0  9990
2 18310  55.0000   0.0000 0000000   0.0000 270.0000 14.51731151    14
CTC2_L_00112002-01
1 18311U 26282PH  26070.40843750  .00000000  00000+0  00000-0 0  9999
2 18311  55.0000  12.0000 0000000   0.0000  12.0000 14.51731151    12
CTC2_L_00112002-02
1 18312U 23021PB  26070.40843750  .00000000  00000+0  00000-0 0  9998
2 18312  55.0000  12.0000 0000000   0.0000 102.0000 14.51731151    13
CTC2_L_00112002-03
1 18313U 25488TO  26070.40843750  .00000000  00000+0  00000-0 0  9998
2 18313  55.0000  12.0000 0000000   0.0000 192.0000 14.51731151    13
CTC2_L_00112002-04
1 18314U 24733DP  26070.40843750  .00000000  00000+0  00000-0 0  9991
2 18314  55.0000  12.0000 0000000   0.0000 282.0000 14.51731151    14
CTC2_L_00112003-01
1 18315U 22028CK  26070.40843750  .00000000  00000+0  00000-0 0  9997
2 18315  55.0000  24.0000 0000000   0.0000  24.0000 14.51731151    12
CTC2_L_00112003-02
1 18316U 26712TS  26070.40843750  .00000000  00000+0  00000-0 0  9992
2 18316  55.0000  24.0000 0000000   0.0000 114.0000 14.51731151    13
CTC2_L_00112003-03
1 18317U 23716EN  26070.40843750  .00000000  00000+0  00000-0 0  9994
2 18317  55.0000  24.0000 0000000   0.0000 204.0000 14.51731151    14
CTC2_L_00112003-04
1 18318U 23445YK  26070.40843750  .00000000  00000+0  00000-0 0  9994
2 18318  55.0000  24.0000 0000000   0.0000 294.0000 14.51731151    14
CTC2_L_00112004-01
1 18319U 23011CB  26070.40843750  .00000000  00000+0  00000-0 0  9994
2 18319  55.0000  36.0000 0000000   0.0000  36.0000 14.51731151    12
CTC2_L_00112004-02
1 18320U 25590OM  26070.40843750  .00000000  00000+0  00000-0 0  9990
2 18320  55.0000  36.0000 0000000   0.0000 126.0000 14.51731151    14
CTC2_L_00112004-03
1 18321U 25781G   26070.40843750  .00000000  00000+0  00000-0 0  9993
2 18321  55.0000  36.0000 0000000   0.0000 216.0000 14.51731151    15
CTC2_L_00112004-04
1 18322U 22769RP  26070.40843750  .00000000  00000+0  00000-0 0  9997
2 18322  55.0000  36.0000 0000000   0.0000 306.0000 14.51731151    16
CTC2_L_00112005-01
1 18323U 23101FD  26070.40843750  .00000000  00000+0  00000-0 0  9999
2 18323  55.0000  48.0000 0000000   0.0000  48.0000 14.51731151    13
CTC2_L_00112005-02
1 18324U 25261F   26070.40843750  .00000000  00000+0  00000-0 0  9999
2 18324  55.0000  48.0000 0000000   0.0000 138.0000 14.51731151    14
CTC2_L_00112005-03
1 18325U 23905DF  26070.40843750  .00000000  00000+0  00000-0 0  9993
2 18325  55.0000  48.0000 0000000   0.0000 228.0000 14.51731151    15
CTC2_L_00112005-04
1 18326U 22098DR  26070.40843750  .00000000  00000+0  00000-0 0  9996
2 18326  55.0000  48.0000 0000000   0.0000 318.0000 14.51731151    16
CTC2_L_00112006-01
1 18327U 26925NJ  26070.40843750  .00000000  00000+0  00000-0 0  9990
2 18327  55.0000  60.0000 0000000   0.0000  60.0000 14.51731151    15
CTC2_L_00112006-02
1 18328U 26892ZH  26070.40843750  .00000000  00000+0  00000-0 0  9994
2 18328  55.0000  60.0000 0000000   0.0000 150.0000 14.51731151    16
CTC2_L_00112006-03
1 18329U 26196LP  26070.40843750  .00000000  00000+0  00000-0 0  9992
2 18329  55.0000  60.0000 0000000   0.0000 240.0000 14.51731151    17
CTC2_L_00112006-04
1 18330U 22182EV  26070.40843750  .00000000  00000+0  00000-0 0  9995
2 18330  55.0000  60.0000 0000000   0.0000 330.0000 14.51731151    19
CTC2_L_00112007-01
1 18331U 26331QX  26070.40843750  .00000000  00000+0  00000-0 0  9996
2 18331  55.0000  72.0000 0000000   0.0000  72.0000 14.51731151    16
CTC2_L_00112007-02
1 18332U 24277DY  26070.40843750  .00000000  00000+0  00000-0 0  9994
2 18332  55.0000  72.0000 0000000   0.0000 162.0000 14.51731151    17
CTC2_L_00112007-03
1 18333U 24993LD  26070.40843750  .00000000  00000+0  00000-0 0  9990
2 18333  55.0000  72.0000 0000000   0.0000 252.0000 14.51731151    18
CTC2_L_00112007-04
1 18334U 26923NM  26070.40843750  .00000000  00000+0  00000-0 0  9996
2 18334  55.0000  72.0000 0000000   0.0000 342.0000 14.51731151    19
CTC2_L_00112008-01
1 18335U 24264JG  26070.40843750  .00000000  00000+0  00000-0 0  9993
2 18335  55.0000  84.0000 0000000   0.0000  84.0000 14.51731151    16
CTC2_L_00112008-02
1 18336U 25681JJ  26070.40843750  .00000000  00000+0  00000-0 0  9998
2 18336  55.0000  84.0000 0000000   0.0000 174.0000 14.51731151    17
CTC2_L_00112008-03
1 18337U 22226YA  26070.40843750  .00000000  00000+0  00000-0 0  9991
2 18337  55.0000  84.0000 0000000   0.0000 264.0000 14.51731151    18
CTC2_L_00112008-04
1 18338U 23507NS  26070.40843750  .00000000  00000+0  00000-0 0  9995
2 18338  55.0000  84.0000 0000000   0.0000 354.0000 14.51731151    19
CTC2_L_00112009-01
1 18339U 22204AV  26070.40843750  .00000000  00000+0  00000-0 0  9999
2 18339  55.0000  96.0000 0000000   0.0000  96.0000 14.51731151    16
CTC2_L_00112009-02
1 18340U 25075CN  26070.40843750  .00000000  00000+0  00000-0 0  9990
2 18340  55.0000  96.0000 0000000   0.0000 186.0000 14.51731151    18
CTC2_L_00112009-03
1 18341U 22475XC  26070.40843750  .00000000  00000+0  00000-0 0  9992
2 18341  55.0000  96.0000 0000000   0.0000 276.0000 14.51731151    19
CTC2_L_00112009-04
1 18342U 23832QA  26070.40843750  .00000000  00000+0  00000-0 0  9991
2 18342  55.0000  96.0000 0000000   0.0000   6.0000 14.51731151    11
CTC2_L_00112010-01
1 18343U 23749ZQ  26070.40843750  .00000000  00000+0  00000-0 0  9999
2 18343  55.0000 108.0000 0000000   0.0000 108.0000 14.51731151    19
CTC2_L_00112010-02
1 18344U 23056TB  26070.40843750  .00000000  00000+0  00000-0 0  9991
2 18344  55.0000 108.0000 0000000   0.0000 198.0000 14.51731151    19
CTC2_L_00112010-03
1 18345U 26891IJ  26070.40843750  .00000000  00000+0  00000-0 0  9992
2 18345  55.0000 108.0000 0000000   0.0000 288.0000 14.51731151    10
CTC2_L_00112010-04
1 18346U 24115NL  26070.40843750  .00000000  00000+0  00000-0 0  9990
2 18346  55.0000 108.0000 0000000   0.0000  18.0000 14.51731151    12
CTC2_L_00112011-01
1 18347U 25361OG  26070.40843750  .00000000  00000+0  00000-0 0  9995
2 18347  55.0000 120.0000 0000000   0.0000 120.0000 14.51731151    11
CTC2_L_00112011-02
1 18348U 23549FB  26070.40843750  .00000000  00000+0  00000-0 0  9992
2 18348  55.0000 120.0000 0000000   0.0000 210.0000 14.51731151    12
CTC2_L_00112011-03
1 18349U 23206E   26070.40843750  .00000000  00000+0  00000-0 0  9993
2 18349  55.0000 120.0000 0000000   0.0000 300.0000 14.51731151    13
CTC2_L_00112011-04
1 18350U 24626MZ  26070.40843750  .00000000  00000+0  00000-0 0  9992
2 18350  55.0000 120.0000 0000000   0.0000  30.0000 14.51731151    15
CTC2_L_00112012-01
1 18351U 25792EX  26070.40843750  .00000000  00000+0  00000-0 0  9998
2 18351  55.0000 132.0000 0000000   0.0000 132.0000 14.51731151    12
CTC2_L_00112012-02
1 18352U 23620HM  26070.40843750  .00000000  00000+0  00000-0 0  9997
2 18352  55.0000 132.0000 0000000   0.0000 222.0000 14.51731151    13
CTC2_L_00112012-03
1 18353U 22938GG  26070.40843750  .00000000  00000+0  00000-0 0  9999
2 18353  55.0000 132.0000 0000000   0.0000 312.0000 14.51731151    14
CTC2_L_00112012-04
1 18354U 24884PZ  26070.40843750  .00000000  00000+0  00000-0 0  9992
2 18354  55.0000 132.0000 0000000   0.0000  42.0000 14.51731151    15
CTC2_L_00112013-01
1 18355U 25314LE  26070.40843750  .00000000  00000+0  00000-0 0  9992
2 18355  55.0000 144.0000 0000000   0.0000 144.0000 14.51731151    12
CTC2_L_00112013-02
1 18356U 24836NH  26070.40843750  .00000000  00000+0  00000-0 0  9991
2 18356  55.0000 144.0000 0000000   0.0000 234.0000 14.51731151    13
CTC2_L_00112013-03
1 18357U 25062BC  26070.40843750  .00000000  00000+0  00000-0 0  9994
2 18357  55.0000 144.0000 0000000   0.0000 324.0000 14.51731151    14
CTC2_L_00112013-04
1 18358U 26793CI  26070.40843750  .00000000  00000+0  00000-0 0  9997
2 18358  55.0000 144.0000 0000000   0.0000  54.0000 14.51731151    15
CTC2_L_00112014-01
1 18359U 26279VF  26070.40843750  .00000000  00000+0  00000-0 0  9997
2 18359  55.0000 156.0000 0000000   0.0000 156.0000 14.51731151    12
CTC2_L_00112014-02
1 18360U 26388AJ  26070.40843750  .00000000  00000+0  00000-0 0  9990
2 18360  55.0000 156.0000 0000000   0.0000 246.0000 14.51731151    14
CTC2_L_00112014-03
1 18361U 22384CM  26070.40843750  .00000000  00000+0  00000-0 0  9993
2 18361  55.0000 156.0000 0000000   0.0000 336.0000 14.51731151    15
CTC2_L_00112014-04
1 18362U 24869RP  26070.40843750  .00000000  00000+0  00000-0 0  9994
2 18362  55.0000 156.0000 0000000   0.0000  66.0000 14.51731151    16
CTC2_L_00112015-01
1 18363U 26153CA  26070.40843750  .00000000  00000+0  00000-0 0  9993
2 18363  55.0000 168.0000 0000000   0.0000 168.0000 14.51731151    13
CTC2_L_00112015-02
1 18364U 23909PX  26070.40843750  .00000000  00000+0  00000-0 0  9990
2 18364  55.0000 168.0000 0000000   0.0000 258.0000 14.51731151    14
CTC2_L_00112015-03
1 18365U 23380TH  26070.40843750  .00000000  00000+0  00000-0 0  9994
2 18365  55.0000 168.0000 0000000   0.0000 348.0000 14.51731151    15
CTC2_L_00112015-04
1 18366U 25521LH  26070.40843750  .00000000  00000+0  00000-0 0  9994
2 18366  55.0000 168.0000 0000000   0.0000  78.0000 14.51731151    16
CTC2_L_00112016-01
1 18367U 22934RX  26070.40843750  .00000000  00000+0  00000-0 0  9990
2 18367  55.0000 180.0000 0000000   0.0000 180.0000 14.51731151    15
CTC2_L_00112016-02
1 18368U 25071HG  26070.40843750  .00000000  00000+0  00000-0 0  9996
2 18368  55.0000 180.0000 0000000   0.0000 270.0000 14.51731151    16
